CCSDS_OMM_VERS = 2.0
CREATION_DATE  = 
ORIGINATOR     = 

OBJECT_NAME    = IDEFIX & ARIANE 42P R/B
OBJECT_ID      = 2002-021B
CENTER_NAME    = EARTH
REF_FRAME      = TEME
TIME_SYSTEM    = UTC
MEAN_ELEMENT_THEORY = SGP/SGP4

EPOCH          = 2025-12-28T05:54:19.308384
MEAN_MOTION    = 14.30962213
ECCENTRICITY   = .00126587
INCLINATION    = 98.5805
RA_OF_ASC_NODE = 296.7371
ARG_OF_PERICENTER = 41.7152
MEAN_ANOMALY   = 318.4994

EPHEMERIS_TYPE = 0
CLASSIFICATION_TYPE = U
NORAD_CAT_ID   = 27422
ELEMENT_SET_NO = 999
REV_AT_EPOCH   = 23380
BSTAR          = .18039641E-3
MEAN_MOTION_DOT = .431E-5
MEAN_MOTION_DDOT = 0

CCSDS_OMM_VERS = 2.0
CREATION_DATE  = 
ORIGINATOR     = 

OBJECT_NAME    = AQUA
OBJECT_ID      = 2002-022A
CENTER_NAME    = EARTH
REF_FRAME      = TEME
TIME_SYSTEM    = UTC
MEAN_ELEMENT_THEORY = SGP/SGP4

EPOCH          = 2025-12-26T23:47:53.598912
MEAN_MOTION    = 14.61764548
ECCENTRICITY   = .00018494
INCLINATION    = 98.4058
RA_OF_ASC_NODE = 322.1038
ARG_OF_PERICENTER = 99.7002
MEAN_ANOMALY   = 302.1298

EPHEMERIS_TYPE = 0
CLASSIFICATION_TYPE = U
NORAD_CAT_ID   = 27424
ELEMENT_SET_NO = 999
REV_AT_EPOCH   = 25811
BSTAR          = .27355086E-3
MEAN_MOTION_DOT = .1315E-4
MEAN_MOTION_DDOT = 0

CCSDS_OMM_VERS = 2.0
CREATION_DATE  = 
ORIGINATOR     = 

OBJECT_NAME    = CZ-4B R/B
OBJECT_ID      = 2002-024C
CENTER_NAME    = EARTH
REF_FRAME      = TEME
TIME_SYSTEM    = UTC
MEAN_ELEMENT_THEORY = SGP/SGP4

EPOCH          = 2025-12-28T03:15:49.993056
MEAN_MOTION    = 14.14531129
ECCENTRICITY   = .00494846
INCLINATION    = 98.8977
RA_OF_ASC_NODE = 50.8525
ARG_OF_PERICENTER = 225.4205
MEAN_ANOMALY   = 193.6964

EPHEMERIS_TYPE = 0
CLASSIFICATION_TYPE = U
NORAD_CAT_ID   = 27432
ELEMENT_SET_NO = 999
REV_AT_EPOCH   = 21912
BSTAR          = .58254712E-4
MEAN_MOTION_DOT = .68E-6
MEAN_MOTION_DDOT = 0

CCSDS_OMM_VERS = 2.0
CREATION_DATE  = 
ORIGINATOR     = 

OBJECT_NAME    = MIDORI II (ADEOS-II)
OBJECT_ID      = 2002-056A
CENTER_NAME    = EARTH
REF_FRAME      = TEME
TIME_SYSTEM    = UTC
MEAN_ELEMENT_THEORY = SGP/SGP4

EPOCH          = 2025-12-28T02:48:51.281280
MEAN_MOTION    = 14.29216934
ECCENTRICITY   = .00009634
INCLINATION    = 98.7657
RA_OF_ASC_NODE = 315.1558
ARG_OF_PERICENTER = 143.5382
MEAN_ANOMALY   = 216.5865

EPHEMERIS_TYPE = 0
CLASSIFICATION_TYPE = U
NORAD_CAT_ID   = 27597
ELEMENT_SET_NO = 999
REV_AT_EPOCH   = 20007
BSTAR          = .1860071E-3
MEAN_MOTION_DOT = .427E-5
MEAN_MOTION_DDOT = 0

CCSDS_OMM_VERS = 2.0
CREATION_DATE  = 
ORIGINATOR     = 

OBJECT_NAME    = H-2A R/B
OBJECT_ID      = 2002-056E
CENTER_NAME    = EARTH
REF_FRAME      = TEME
TIME_SYSTEM    = UTC
MEAN_ELEMENT_THEORY = SGP/SGP4

EPOCH          = 2025-12-27T21:28:06.093408
MEAN_MOTION    = 14.33690170
ECCENTRICITY   = .0070742
INCLINATION    = 98.3088
RA_OF_ASC_NODE = 320.0496
ARG_OF_PERICENTER = 16.5079
MEAN_ANOMALY   = 41.8942

EPHEMERIS_TYPE = 0
CLASSIFICATION_TYPE = U
NORAD_CAT_ID   = 27601
ELEMENT_SET_NO = 999
REV_AT_EPOCH   = 20382
BSTAR          = .20601E-3
MEAN_MOTION_DOT = .546E-5
MEAN_MOTION_DDOT = 0

CCSDS_OMM_VERS = 2.0
CREATION_DATE  = 
ORIGINATOR     = 

OBJECT_NAME    = CZ-4B R/B
OBJECT_ID      = 2003-049C
CENTER_NAME    = EARTH
REF_FRAME      = TEME
TIME_SYSTEM    = UTC
MEAN_ELEMENT_THEORY = SGP/SGP4

EPOCH          = 2025-12-28T04:58:06.603168
MEAN_MOTION    = 14.54925130
ECCENTRICITY   = .00493881
INCLINATION    = 98.6801
RA_OF_ASC_NODE = 349.3561
ARG_OF_PERICENTER = 89.8359
MEAN_ANOMALY   = 270.8496

EPHEMERIS_TYPE = 0
CLASSIFICATION_TYPE = U
NORAD_CAT_ID   = 28059
ELEMENT_SET_NO = 999
REV_AT_EPOCH   = 17620
BSTAR          = .15102275E-3
MEAN_MOTION_DOT = .609E-5
MEAN_MOTION_DDOT = 0

CCSDS_OMM_VERS = 2.0
CREATION_DATE  = 
ORIGINATOR     = 

OBJECT_NAME    = CZ-2C R/B
OBJECT_ID      = 2004-012C
CENTER_NAME    = EARTH
REF_FRAME      = TEME
TIME_SYSTEM    = UTC
MEAN_ELEMENT_THEORY = SGP/SGP4

EPOCH          = 2025-12-28T02:36:24.649632
MEAN_MOTION    = 15.56698763
ECCENTRICITY   = .00167156
INCLINATION    = 97.7396
RA_OF_ASC_NODE = 56.0099
ARG_OF_PERICENTER = 210.8755
MEAN_ANOMALY   = 149.1518

EPHEMERIS_TYPE = 0
CLASSIFICATION_TYPE = U
NORAD_CAT_ID   = 28222
ELEMENT_SET_NO = 999
REV_AT_EPOCH   = 19311
BSTAR          = .64904843E-3
MEAN_MOTION_DOT = .46694E-3
MEAN_MOTION_DDOT = 0

CCSDS_OMM_VERS = 2.0
CREATION_DATE  = 
ORIGINATOR     = 

OBJECT_NAME    = SL-16 R/B
OBJECT_ID      = 2004-021B
CENTER_NAME    = EARTH
REF_FRAME      = TEME
TIME_SYSTEM    = UTC
MEAN_ELEMENT_THEORY = SGP/SGP4

EPOCH          = 2025-12-28T07:40:40.952352
MEAN_MOTION    = 14.14581575
ECCENTRICITY   = .00044419
INCLINATION    = 71.0004
RA_OF_ASC_NODE = 22.2688
ARG_OF_PERICENTER = 173.5951
MEAN_ANOMALY   = 186.5229

EPHEMERIS_TYPE = 0
CLASSIFICATION_TYPE = U
NORAD_CAT_ID   = 28353
ELEMENT_SET_NO = 999
REV_AT_EPOCH   = 11274
BSTAR          = .17854399E-3
MEAN_MOTION_DOT = .295E-5
MEAN_MOTION_DDOT = 0

CCSDS_OMM_VERS = 2.0
CREATION_DATE  = 
ORIGINATOR     = 

OBJECT_NAME    = CZ-4B R/B
OBJECT_ID      = 2004-035C
CENTER_NAME    = EARTH
REF_FRAME      = TEME
TIME_SYSTEM    = UTC
MEAN_ELEMENT_THEORY = SGP/SGP4

EPOCH          = 2025-12-28T02:05:18.572928
MEAN_MOTION    = 15.27629231
ECCENTRICITY   = .00320219
INCLINATION    = 97.3598
RA_OF_ASC_NODE = 32.2271
ARG_OF_PERICENTER = 220.4222
MEAN_ANOMALY   = 139.4638

EPHEMERIS_TYPE = 0
CLASSIFICATION_TYPE = U
NORAD_CAT_ID   = 28415
ELEMENT_SET_NO = 999
REV_AT_EPOCH   = 16897
BSTAR          = .39971064E-3
MEAN_MOTION_DOT = .10889E-3
MEAN_MOTION_DDOT = 0

CCSDS_OMM_VERS = 2.0
CREATION_DATE  = 
ORIGINATOR     = 

OBJECT_NAME    = CZ-2C R/B
OBJECT_ID      = 2004-046B
CENTER_NAME    = EARTH
REF_FRAME      = TEME
TIME_SYSTEM    = UTC
MEAN_ELEMENT_THEORY = SGP/SGP4

EPOCH          = 2025-12-28T05:52:42.793536
MEAN_MOTION    = 14.26950855
ECCENTRICITY   = .01397086
INCLINATION    = 98.1997
RA_OF_ASC_NODE = 276.6600
ARG_OF_PERICENTER = 6.6681
MEAN_ANOMALY   = 353.6318

EPHEMERIS_TYPE = 0
CLASSIFICATION_TYPE = U
NORAD_CAT_ID   = 28480
ELEMENT_SET_NO = 999
REV_AT_EPOCH   = 9831
BSTAR          = .15963818E-3
MEAN_MOTION_DOT = .389E-5
MEAN_MOTION_DDOT = 0

CCSDS_OMM_VERS = 2.0
CREATION_DATE  = 
ORIGINATOR     = 

OBJECT_NAME    = ARIANE 5 R/B
OBJECT_ID      = 2004-049H
CENTER_NAME    = EARTH
REF_FRAME      = TEME
TIME_SYSTEM    = UTC
MEAN_ELEMENT_THEORY = SGP/SGP4

EPOCH          = 2025-12-28T00:21:48.288672
MEAN_MOTION    = 14.85054436
ECCENTRICITY   = .00836121
INCLINATION    = 98.2531
RA_OF_ASC_NODE = 162.8452
ARG_OF_PERICENTER = 222.8440
MEAN_ANOMALY   = 136.6239

EPHEMERIS_TYPE = 0
CLASSIFICATION_TYPE = U
NORAD_CAT_ID   = 28499
ELEMENT_SET_NO = 999
REV_AT_EPOCH   = 13515
BSTAR          = .20252279E-3
MEAN_MOTION_DOT = .1776E-4
MEAN_MOTION_DDOT = 0

CCSDS_OMM_VERS = 2.0
CREATION_DATE  = 
ORIGINATOR     = 

OBJECT_NAME    = CZ-2D R/B
OBJECT_ID      = 2005-024B
CENTER_NAME    = EARTH
REF_FRAME      = TEME
TIME_SYSTEM    = UTC
MEAN_ELEMENT_THEORY = SGP/SGP4

EPOCH          = 2025-12-27T23:40:46.471008
MEAN_MOTION    = 15.54103539
ECCENTRICITY   = .0003235
INCLINATION    = 97.3632
RA_OF_ASC_NODE = 9.8422
ARG_OF_PERICENTER = 298.0644
MEAN_ANOMALY   = 62.0282

EPHEMERIS_TYPE = 0
CLASSIFICATION_TYPE = U
NORAD_CAT_ID   = 28738
ELEMENT_SET_NO = 999
REV_AT_EPOCH   = 12862
BSTAR          = .57044E-3
MEAN_MOTION_DOT = .37038E-3
MEAN_MOTION_DDOT = 0

