IDEFIX & ARIANE 42P R/B 
1 27422U 02021B   25362.24605681  .00000431  00000+0  18040-3 0  9995
2 27422  98.5805 296.7371 0012658  41.7152 318.4994 14.30962213233806
AQUA                    
1 27424U 02022A   25360.99159258  .00001315  00000+0  27355-3 0  9993
2 27424  98.4058 322.1038 0001849  99.7002 302.1298 14.61764548258111
CZ-4B R/B               
1 27432U 02024C   25362.13599529  .00000068  00000+0  58255-4 0  9999
2 27432  98.8977  50.8525 0049484 225.4205 193.6964 14.14531129219126
MIDORI II (ADEOS-II)    
1 27597U 02056A   25362.11726020  .00000427  00000+0  18601-3 0  9991
2 27597  98.7657 315.1558 0000963 143.5382 216.5865 14.29216934200079
H-2A R/B                
1 27601U 02056E   25361.89451497  .00000546  00000+0  20601-3 0  9999
2 27601  98.3088 320.0496 0070742  16.5079  41.8942 14.33690170203823
CZ-4B R/B               
1 28059U 03049C   25362.20702087  .00000609  00000+0  15102-3 0  9990
2 28059  98.6801 349.3561 0049388  89.8359 270.8496 14.54925130176209
CZ-2C R/B               
1 28222U 04012C   25362.10861863  .00046694  00000+0  64905-3 0  9999
2 28222  97.7396  56.0099 0016715 210.8755 149.1518 15.56698763193116
SL-16 R/B               
1 28353U 04021B   25362.31991843  .00000295  00000+0  17854-3 0  9997
2 28353  71.0004  22.2688 0004441 173.5951 186.5229 14.14581575112746
CZ-4B R/B               
1 28415U 04035C   25362.08702052  .00010889  00000+0  39971-3 0  9991
2 28415  97.3598  32.2271 0032021 220.4222 139.4638 15.27629231168975
CZ-2C R/B               
1 28480U 04046B   25362.24493974  .00000389  00000+0  15964-3 0  9993
2 28480  98.1997 276.6600 0139708   6.6681 353.6318 14.26950855 98314
ARIANE 5 R/B            
1 28499U 04049H   25362.01514223  .00001776  00000+0  20252-3 0  9999
2 28499  98.2531 162.8452 0083612 222.8440 136.6239 14.85054436135157
CZ-2D R/B               
1 28738U 05024B   25361.98664897  .00037038  00000+0  57044-3 0  9996
2 28738  97.3632   9.8422 0003235 298.0644  62.0282 15.54103539128626
